GLOBALSTAR M068         
1 32266U 07048D   25140.39404449 -.00000114  00000+0 -54106-4 0  9994
2 32266  51.9910  26.9786 0001743  71.7898 100.3095 12.62822896814040
GLOBALSTAR M079         
1 37188U 10054A   25140.55715516 -.00000106  00000+0 -10415-4 0  9997
2 37188  52.0031 223.8956 0000505 170.4754 321.9088 12.62264530672965
GLOBALSTAR M074         
1 37189U 10054B   25140.47886844 -.00000073  00000+0  17020-3 0  9992
2 37189  52.0008 223.4621 0000264 125.2599 250.0026 12.62269814673563
GLOBALSTAR M076         
1 37190U 10054C   25140.50467322 -.00000099  00000+0  27284-4 0  9996
2 37190  52.0019 223.5506 0000265 176.8611 196.5081 12.62262756673280
GLOBALSTAR M077         
1 37191U 10054D   25140.41249706 -.00000095  00000+0  46517-4 0  9997
2 37191  52.0048 180.6810 0000149 148.0069 225.7687 12.62268290673649
GLOBALSTAR M075         
1 37192U 10054E   25140.59737730 -.00000076  00000+0  15376-3 0  9993
2 37192  51.9952 265.5414 0000641 117.6039 256.7772 12.62265003672367
GLOBALSTAR M073         
1 37193U 10054F   25140.35968010 -.00000090  00000+0  74788-4 0  9994
2 37193  52.0035 180.0643 0000138 199.8740 173.0435 12.62271696674329
GLOBALSTAR M083         
1 37739U 11033A   25140.21449888 -.00000107  00000+0 -20593-4 0  9995
2 37739  51.9841 129.2737 0000190  95.3304 277.6009 12.62263676643324
GLOBALSTAR M088         
1 37740U 11033B   25140.13911447 -.00000089  00000+0  80683-4 0  9997
2 37740  51.9752  35.0162 0000743  76.8275  74.6802 12.62266122638855
GLOBALSTAR M091         
1 37741U 11033C   25140.31533431 -.00000091  00000+0  71384-4 0  9992
2 37741  52.0017 357.9876 0000946 102.2215  69.6298 12.62267955639661
GLOBALSTAR M085         
1 37742U 11033D   25140.42673559 -.00000084  00000+0  10805-3 0  9993
2 37742  51.9874 308.7106 0000929 118.3319 260.3334 12.62268496640197
GLOBALSTAR M081         
1 37743U 11033E   25140.37546101 -.00000080  00000+0  13508-3 0  9999
2 37743  51.9967 311.6380 0000743 120.2929 264.4051 12.62263992640334
GLOBALSTAR M089         
1 37744U 11033F   25140.64981116 -.00000091  00000+0  71330-4 0  9999
2 37744  51.9932 265.0336 0000445 107.9562 265.3798 12.62269990641214
GLOBALSTAR M084         
1 38040U 11080A   25140.45878363 -.00000091  00000+0  71461-4 0  9994
2 38040  51.9980 132.8882 0000411   0.2086 163.6377 12.62266170619162
GLOBALSTAR M080         
1 38041U 11080B   25140.42815877 -.00000089  00000+0  82410-4 0  9996
2 38041  52.0030 134.5632 0000585  89.5276  65.0995 12.62263042619285
GLOBALSTAR M082         
1 38042U 11080C   25140.60544613 -.00000097  00000+0  40254-4 0  9993
2 38042  52.0070  89.4802 0000698  87.2273  83.7130 12.62266181620012
GLOBALSTAR M092         
1 38043U 11080D   25140.56822951 -.00000110  00000+0 -33491-4 0  9995
2 38043  52.0060 179.9714 0000185 113.8129   8.1021 12.62264372618462
GLOBALSTAR M090         
1 38044U 11080E   25140.55263941 -.00000099  00000+0  26625-4 0  9999
2 38044  51.9883  83.4837 0000483  74.6867  96.5753 12.62270194620165
GLOBALSTAR M086         
1 38045U 11080F   25140.57902409 -.00000088  00000+0  86570-4 0  9994
2 38045  51.9895  83.9520 0000550 277.7027 253.9643 12.62271031620070
GLOBALSTAR M097         
1 39072U 13005A   25140.33027855 -.00000097  00000+0  39184-4 0  9990
2 39072  52.0067 359.2305 0000689 101.3483 258.7461 12.62272019567297
GLOBALSTAR M093         
1 39073U 13005B   25140.30378498 -.00000092  00000+0  68418-4 0  9997
2 39073  51.9831 352.6581 0000758 102.6202 257.4749 12.62264658567248
GLOBALSTAR M094         
1 39074U 13005C   25140.62052895 -.00000100  00000+0  20830-4 0  9999
2 39074  51.9962 266.0475 0000761 147.2807 212.8106 12.62270829568895
GLOBALSTAR M096         
1 39075U 13005D   25140.55461794 -.00000089  00000+0  81168-4 0  9991
2 39075  52.0085 314.7419 0000940 123.0222 237.0735 12.62271371567805
GLOBALSTAR M078         
1 39076U 13005E   25140.44882667 -.00000035  00000+0  38314-3 0  9991
2 39076  51.9894  39.6091 0001446  99.3277 260.7753 12.62263482566411
GLOBALSTAR M095         
1 39077U 13005F   25140.39604040 -.00000090  00000+0  79427-4 0  9995
2 39077  51.9820  36.9802 0000940 105.2696 254.8274 12.62269726566263
GLOBALSTAR M087         
1 52888U 22064A   25140.42670735 -.00000095  00000+0  49362-4 0  9993
2 52888  51.9967 178.3152 0000295 139.9227 220.1662 12.62263249141536
